City,,Country,Zip,Qty,Qtr,,,,,,,,,
KEPERRA,,Australia,4054,2,Q1-2016,,,,,,,,,
ROCKHAMPTON,,Australia,4700,1,,,,,,,,,,
SOUTH BRISBANE,,Australia,4101,1,,,,,,,,,,
OSHAWA,,Canada,L1G 2B9,1,Q1-2016,,,,,,,,,
CHANGCHUN CITY,,China,130000,2,Q1-2016,,,,,,,,,
CHANGSHA,,China,410000,1,Q1-2016,,,,,,,,,
CHENGDU,,China,610000,2,Q1-2016,,,,,,,,,
CHONGQING,,China,400037,1,Q1-2016,,,,,,,,,
DEZHOU,,China,253009,1,Q1-2016,,,,,,,,,
GUANGZHOU,,China,510000,1,Q1-2016,,,,,,,,,
HONGKONG,,China,999077,1,Q1-2016,,,,,,,,,
JIAONAN,,China,266400,1,Q1-2016,,,,,,,,,
SHANGRAO,,China,333105,1,Q1-2016,,,,,,,,,
SHAOXING,,China,312000,1,Q1-2016,,,,,,,,,
SUZHOU,,China,215631,1,Q1-2016,,,,,,,,,
ZHENGZHOU,,China,450000,1,Q1-2016,,,,,,,,,
ZUNYI,,China,563000,1,Q1-2016,,,,,,,,,
BEIJING,,China,100000,11,,,,,,,,,,
DINGXI,,China,748100,1,,,,,,,,,,
HANGZHOU,,China,310000,1,,,,,,,,,,
JINING,,China,272400,1,,,,,,,,,,
LANZHOU,,China,730000,1,,,,,,,,,,
LICHUAN,,China,445400,1,,,,,,,,,,
NANCHANG,,China,330000,1,,,,,,,,,,
NANJING,,China,210000,1,,,,,,,,,,
PUTIAN,,China,351254,1,,,,,,,,,,
QINGDAO,,China,266000,1,,,,,,,,,,
SHANGHAI,,China,200030,2,,,,,,,,,,
TENGZHOU,,China,277500,1,,,,,,,,,,
ZIBO,,China,255025,1,,,,,,,,,,
VANTAA,,Finland,00029,1,Q1-2016,,,,,,,,,
CLICHY,,France,92110,1,Q1-2016,,,,,,,,,
CLERMONT FERRAND,,France,63003,1,,,,,,,,,,
BERLIN,,Germany,13353,1,,,,,,,,,,
HRAKLEIO,,Greece,71201,1,,,,,,,,,,
VESZPREM,,Hungary,Veszprem 8200,1,,,,,,,,,,
CHENNAI,,India,Chennai 600100,1,Q1-2016,,,,,,,,,
HYDERABAD,,India,Hyderabad 500035,1,Q1-2016,,,,,,,,,
JABALPUR,,India,Jabalpur 482003,1,Q1-2016,,,,,,,,,
SURAT,,India,Surat 395002,1,Q1-2016,,,,,,,,,
TRIVANDRUM,,India,Trivandrum 695607,1,Q1-2016,,,,,,,,,
ERNAKULAM,,India,Ernakulam 683572,1,,,,,,,,,,
GREATER NOIDA,,India,Greater Noida 201306,1,,,,,,,,,,
HYDERABAD,,India,Hyderabad 500032,2,,,,,,,,,,
INDORE,,India,Indore 452001,1,,,,,,,,,,
MUMBAI,,India,Mumbai 400062,1,,,,,,,,,,
THANJAVUR,,India,Thanjavur 613001,1,,,,,,,,,,
BEKASI,,Indonesia,Bekasi 17144,1,Q1-2016,,,,,,,,,
JAKARTA,,Indonesia,Jakarta 12980,1,Q1-2016,,,,,,,,,
Surabaya,,Indonesia,Surabaya 60252,3,,,,,,,,,,
AMAKUSASHI,AMAKUSA ,Japan,amakusashi 8630013,1,Q1-2016,,,,,,,,,
HIYUUGASHI,HIYUUGA ,Japan,Hiyuugashi 8830021,1,Q1-2016,,,,,,,,,
ITABASHIKU,ITABASHI,Japan,Itabashiku 1750083,1,Q1-2016,,,,,,,,,
KITAAIDUGUNKITAAIDUMURA,IZUMI,Japan,Kitaaidugunkitaaidum 9696186,1,Q1-2016,,,,,,,,,
KYOUTOSHINAKAGYOUKU,Kyoto,Japan,Kyoutoshinakagyouk 6048845,1,Q1-2016,,,,,,,,,
MATSUYAMASHI,MATSUYAMA,Japan,Matsuyamashi 7900802,1,Q1-2016,,,,,,,,,
OOSAKASHI,OSAKA,Japan,Oosakashi 5330022,1,Q1-2016,,,,,,,,,
SAKADOSHI,SAKADO,Japan,Sakadoshi 3500262,1,Q1-2016,,,,,,,,,
TAKAMATSUSHI,TAKAMATSU,Japan,Takamatsushi 7600065,1,Q1-2016,,,,,,,,,
ASAHIKAWASHI,ASAHIKAWA,Japan,Asahikawashi 0788244,2,,,,,,,,,,
CHIYODAKU,CHIYODA,Japan,Chiyodaku 1020074,1,,,,,,,,,,
HACHIOUZISHI,HACHIOJI,Japan,Hachiouzishi 1920903,1,,,,,,,,,,
HAMAMATSUSHI,HAMAMATSU,Japan,Hamamatsushi 4308558,1,,,,,,,,,,
HIGASHITSUGARUGUNHIRANAIMACHI,HIRANAI,Japan,Higashitsugarugunhi 0393321,1,,,,,,,,,,
HIROSAKISHI,HIROSAKI,Japan,368045,1,,,,,,,,HIROSHIMASHIMINAMIKU,7340004,Japan
HIROSHIMASHIMINAMIKU,,Japan,7340004,1,,,,,,,,,,
HUCHIYUUSHI,,Japan,7260002,1,,,,,,,,,,
HUZISAWASHI,,Japan,2510042,1,,,,,,,,,,
ICHIKAWASHI,,Japan,2720021,1,,,,,,,,,,
ICHINOSEKISHI,,Japan,293405,1,,,,,,,,,,
IWAMIZAWASHI,,Japan,680044,1,,,,,,,,,,
KIRISHIMASHI,,Japan,8994352,1,,,,,,,,,,
KOUTOUKU,,Japan,Koutouku 1358550,1,,,,,,,,,,
KUMAMOTOSHI,,Japan,Kumamotoshi 8610136,2,,,,,,,,,,
MATSUMOTOSHI,,Japan,Matsumotoshi 3908505,1,,,,,,,,,,
MINAMIAIDUGUN,,Japan,Minamiaidugun 9670006,1,,,,,,,,,,
SABAESHI,,Japan,Sabaeshi 9160025,1,,,,,,,,,,
SANNOHEGUNGONOHEMACHI,,Japan,Aomori 391517,1,,,,,,,,,,
TAKAMATSUSHI,,Japan,Takamatsushi 7618076,1,,,,,,,,,,
TAKASAKISHI,,Japan,Takasakishi 3700001,1,,,,,,,,,,
TOUGANESHI,,Japan,Touganeshi 2838650,1,,,,,,,,,,
TSUSHI,,Japan,Tsushi 5140114,1,,,,,,,,,,
GWANGJU,,"Korea, Republic of",Gwangju 503-715,1,Q1-2016,,,,,,,,,
LUXEMBOURG,,Luxembourg,Luxembourg 2763,1,Q1-2016,,,,,,,,,
LUBLIN,,Poland,Lublin 20 954,1,,,,,,,,,,
WARSZAWA,,Poland,Warszawa 01 138,1,,,,,,,,,,
Samutprakarn,,Thailand,Samutprakarn 10270,2,Q1-2016,,,,,,,,,
BANGKOK,,Thailand,Bangkok 10250,1,,,,,,,,,,
Bangplee Samutprakarn,,Thailand,Bangplee Samuprakarn 10540,1,,,,,,,,,,
ANKARA,,Turkey,Ankara 06xxx,1,Q1-2016,,,,,,,,,
CORUM,,Turkey,Corum 19000,1,Q1-2016,,,,,,,,,
TOOTING,,United Kingdom,SW17 0QT,1,,,,,,,,,,
HO CHI MINH CITY,,Vietnam,700000,1,,,,,,,,,,
,,,,113,,,,,,,,,,
,,,,113,,,,,,,,,,
